[{"OBJECT_NAME":"STARLINK-6106","OBJECT_ID":"2023-090BF","EPOCH":"2026-03-08T22:48:20.317824","MEAN_MOTION":15.03250022,"ECCENTRICITY":0.00018558,"INCLINATION":43.0028,"RA_OF_ASC_NODE":265.5111,"ARG_OF_PERICENTER":237.2829,"MEAN_ANOMALY":122.7835,"EPHEMERIS_TYPE":0,"CLASSIFICATION_TYPE":"U","NORAD_CAT_ID":57154,"ELEMENT_SET_NO":999,"REV_AT_EPOCH":15045,"BSTAR":0.0059993964,"MEAN_MOTION_DOT":0.00083378,"MEAN_MOTION_DDOT":0},{"OBJECT_NAME":"COSMOS 2251 DEB","OBJECT_ID":"1993-036KZ","EPOCH":"2026-03-09T13:28:08.575968","MEAN_MOTION":15.07827872,"ECCENTRICITY":0.00279097,"INCLINATION":73.9949,"RA_OF_ASC_NODE":118.7357,"ARG_OF_PERICENTER":226.7607,"MEAN_ANOMALY":259.798,"EPHEMERIS_TYPE":0,"CLASSIFICATION_TYPE":"U","NORAD_CAT_ID":34128,"ELEMENT_SET_NO":999,"REV_AT_EPOCH":90472,"BSTAR":0.0021198383,"MEAN_MOTION_DOT":0.0003287,"MEAN_MOTION_DDOT":0}]
